[{"CCSDS_OMM_VERS":"2.0","COMMENT":"GENERATED VIA SPACE-TRACK.ORG API","CREATION_DATE":"2020-06-01T22:26:09","ORIGINATOR":"18 SPCS","OBJECT_NAME":"ONEWEB-0027","OBJECT_ID":"2020-020J","CENTER_NAME":"EARTH","REF_FRAME":"TEME","TIME_SYSTEM":"UTC","MEAN_ELEMENT_THEORY":"SGP4","EPOCH":"2020-06-01T22:00:00.999936","MEAN_MOTION":"14.89810547","ECCENTRICITY":"0.00283460","INCLINATION":"87.5760","RA_OF_ASC_NODE":"114.7133","ARG_OF_PERICENTER":"40.6953","MEAN_ANOMALY":"330.0080","EPHEMERIS_TYPE":"0","CLASSIFICATION_TYPE":"U","NORAD_CAT_ID":"45432","ELEMENT_SET_NO":"999","REV_AT_EPOCH":"1094","BSTAR":"0.00121790000000","MEAN_MOTION_DOT":"0.00011806","MEAN_MOTION_DDOT":"0.0000000000000","SEMIMAJOR_AXIS":"6976.664","PERIOD":"96.656","APOAPSIS":"618.305","PERIAPSIS":"578.753","OBJECT_TYPE":"PAYLOAD","RCS_SIZE":"MEDIUM","COUNTRY_CODE":"UK","LAUNCH_DATE":"2020-03-21","SITE":"TTMTR","DECAY_DATE":null,"FILE":"2757402","GP_ID":"154908397","TLE_LINE0":"0 ONEWEB-0027","TLE_LINE1":"1 45432U 20020J   20153.91667824  .00011806  00000-0  12179-2 0  9994","TLE_LINE2":"2 45432  87.5760 114.7133 0028346  40.6953 330.0080 14.89810547 10948"},{"CCSDS_OMM_VERS":"2.0","COMMENT":"GENERATED VIA SPACE-TRACK.ORG API","CREATION_DATE":"2020-06-02T14:36:09","ORIGINATOR":"18 SPCS","OBJECT_NAME":"ONEWEB-0027","OBJECT_ID":"2020-020J","CENTER_NAME":"EARTH","REF_FRAME":"TEME","TIME_SYSTEM":"UTC","MEAN_ELEMENT_THEORY":"SGP4","EPOCH":"2020-06-02T12:00:00.999648","MEAN_MOTION":"14.89828490","ECCENTRICITY":"0.00283510","INCLINATION":"87.5666","RA_OF_ASC_NODE":"114.5334","ARG_OF_PERICENTER":"38.7783","MEAN_ANOMALY":"218.4027","EPHEMERIS_TYPE":"0","CLASSIFICATION_TYPE":"U","NORAD_CAT_ID":"45432","ELEMENT_SET_NO":"999","REV_AT_EPOCH":"1102","BSTAR":"-0.00428570000000","MEAN_MOTION_DOT":"-0.00041130","MEAN_MOTION_DDOT":"0.0000000000000","SEMIMAJOR_AXIS":"6976.608","PERIOD":"96.655","APOAPSIS":"618.252","PERIAPSIS":"578.693","OBJECT_TYPE":"PAYLOAD","RCS_SIZE":"MEDIUM","COUNTRY_CODE":"UK","LAUNCH_DATE":"2020-03-21","SITE":"TTMTR","DECAY_DATE":null,"FILE":"2757872","GP_ID":"154938998","TLE_LINE0":"0 ONEWEB-0027","TLE_LINE1":"1 45432U 20020J   20154.50001157 -.00041130  00000-0 -42857-2 0  9992","TLE_LINE2":"2 45432  87.5666 114.5334 0028351  38.7783 218.4027 14.89828490 11025"},{"CCSDS_OMM_VERS":"2.0","COMMENT":"GENERATED VIA SPACE-TRACK.ORG API","CREATION_DATE":"2020-06-02T16:51:34","ORIGINATOR":"18 SPCS","OBJECT_NAME":"ONEWEB-0027","OBJECT_ID":"2020-020J","CENTER_NAME":"EARTH","REF_FRAME":"TEME","TIME_SYSTEM":"UTC","MEAN_ELEMENT_THEORY":"SGP4","EPOCH":"2020-06-02T14:00:01.999872","MEAN_MOTION":"14.89812642","ECCENTRICITY":"0.00283570","INCLINATION":"87.5653","RA_OF_ASC_NODE":"114.5081","ARG_OF_PERICENTER":"38.5550","MEAN_ANOMALY":"305.3360","EPHEMERIS_TYPE":"0","CLASSIFICATION_TYPE":"U","NORAD_CAT_ID":"45432","ELEMENT_SET_NO":"999","REV_AT_EPOCH":"175","BSTAR":"-0.00203090000000","MEAN_MOTION_DOT":"-0.00019527","MEAN_MOTION_DDOT":"0.0000000000000","SEMIMAJOR_AXIS":"6976.657","PERIOD":"96.656","APOAPSIS":"618.306","PERIAPSIS":"578.738","OBJECT_TYPE":"PAYLOAD","RCS_SIZE":"MEDIUM","COUNTRY_CODE":"UK","LAUNCH_DATE":"2020-03-21","SITE":"TTMTR","DECAY_DATE":null,"FILE":"2758047","GP_ID":"154962859","TLE_LINE0":"0 ONEWEB-0027","TLE_LINE1":"1 45432U 20020J   20154.58335648 -.00019527 +00000-0 -20309-2 0  9998","TLE_LINE2":"2 45432 087.5653 114.5081 0028357 038.5550 305.3360 14.89812642001753"},{"CCSDS_OMM_VERS":"2.0","COMMENT":"GENERATED VIA SPACE-TRACK.ORG API","CREATION_DATE":"2020-06-02T19:26:09","ORIGINATOR":"18 SPCS","OBJECT_NAME":"ONEWEB-0027","OBJECT_ID":"2020-020J","CENTER_NAME":"EARTH","REF_FRAME":"TEME","TIME_SYSTEM":"UTC","MEAN_ELEMENT_THEORY":"SGP4","EPOCH":"2020-06-02T18:00:00.999648","MEAN_MOTION":"14.89763928","ECCENTRICITY":"0.00282740","INCLINATION":"87.5626","RA_OF_ASC_NODE":"114.4567","ARG_OF_PERICENTER":"37.9641","MEAN_ANOMALY":"119.1579","EPHEMERIS_TYPE":"0","CLASSIFICATION_TYPE":"U","NORAD_CAT_ID":"45432","ELEMENT_SET_NO":"999","REV_AT_EPOCH":"1106","BSTAR":"0.00793120000000","MEAN_MOTION_DOT":"0.00077339","MEAN_MOTION_DDOT":"0.0000000000000","SEMIMAJOR_AXIS":"6976.809","PERIOD":"96.659","APOAPSIS":"618.400","PERIAPSIS":"578.948","OBJECT_TYPE":"PAYLOAD","RCS_SIZE":"MEDIUM","COUNTRY_CODE":"UK","LAUNCH_DATE":"2020-03-21","SITE":"TTMTR","DECAY_DATE":null,"FILE":"2758062","GP_ID":"154963167","TLE_LINE0":"0 ONEWEB-0027","TLE_LINE1":"1 45432U 20020J   20154.75001157  .00077339  00000-0  79312-2 0  9993","TLE_LINE2":"2 45432  87.5626 114.4567 0028274  37.9641 119.1579 14.89763928 11063"},{"CCSDS_OMM_VERS":"2.0","COMMENT":"GENERATED VIA SPACE-TRACK.ORG API","CREATION_DATE":"2020-06-03T01:59:31","ORIGINATOR":"18 SPCS","OBJECT_NAME":"ONEWEB-0027","OBJECT_ID":"2020-020J","CENTER_NAME":"EARTH","REF_FRAME":"TEME","TIME_SYSTEM":"UTC","MEAN_ELEMENT_THEORY":"SGP4","EPOCH":"2020-06-02T22:00:01.999584","MEAN_MOTION":"14.89816599","ECCENTRICITY":"0.00282110","INCLINATION":"87.5623","RA_OF_ASC_NODE":"114.4051","ARG_OF_PERICENTER":"37.3414","MEAN_ANOMALY":"293.1016","EPHEMERIS_TYPE":"0","CLASSIFICATION_TYPE":"U","NORAD_CAT_ID":"45432","ELEMENT_SET_NO":"999","REV_AT_EPOCH":"178","BSTAR":"-0.00177830000000","MEAN_MOTION_DOT":"-0.00017101","MEAN_MOTION_DDOT":"0.0000000000000","SEMIMAJOR_AXIS":"6976.645","PERIOD":"96.656","APOAPSIS":"618.191","PERIAPSIS":"578.828","OBJECT_TYPE":"PAYLOAD","RCS_SIZE":"MEDIUM","COUNTRY_CODE":"UK","LAUNCH_DATE":"2020-03-21","SITE":"TTMTR","DECAY_DATE":null,"FILE":"2758247","GP_ID":"154986579","TLE_LINE0":"0 ONEWEB-0027","TLE_LINE1":"1 45432U 20020J   20154.91668981 -.00017101 +00000-0 -17783-2 0  9992","TLE_LINE2":"2 45432 087.5623 114.4051 0028211 037.3414 293.1016 14.89816599001781"},{"CCSDS_OMM_VERS":"2.0","COMMENT":"GENERATED VIA SPACE-TRACK.ORG API","CREATION_DATE":"2020-06-03T06:36:09","ORIGINATOR":"18 SPCS","OBJECT_NAME":"ONEWEB-0027","OBJECT_ID":"2020-020J","CENTER_NAME":"EARTH","REF_FRAME":"TEME","TIME_SYSTEM":"UTC","MEAN_ELEMENT_THEORY":"SGP4","EPOCH":"2020-06-03T06:00:00.999648","MEAN_MOTION":"14.89772042","ECCENTRICITY":"0.00282180","INCLINATION":"87.5623","RA_OF_ASC_NODE":"114.3010","ARG_OF_PERICENTER":"36.0861","MEAN_ANOMALY":"280.8716","EPHEMERIS_TYPE":"0","CLASSIFICATION_TYPE":"U","NORAD_CAT_ID":"45432","ELEMENT_SET_NO":"999","REV_AT_EPOCH":"1113","BSTAR":"0.00553360000000","MEAN_MOTION_DOT":"0.00053800","MEAN_MOTION_DDOT":"0.0000000000000","SEMIMAJOR_AXIS":"6976.784","PERIOD":"96.659","APOAPSIS":"618.336","PERIAPSIS":"578.962","OBJECT_TYPE":"PAYLOAD","RCS_SIZE":"MEDIUM","COUNTRY_CODE":"UK","LAUNCH_DATE":"2020-03-21","SITE":"TTMTR","DECAY_DATE":null,"FILE":"2758344","GP_ID":"154988837","TLE_LINE0":"0 ONEWEB-0027","TLE_LINE1":"1 45432U 20020J   20155.25001157  .00053800  00000-0  55336-2 0  9996","TLE_LINE2":"2 45432  87.5623 114.3010 0028218  36.0861 280.8716 14.89772042 11138"},{"CCSDS_OMM_VERS":"2.0","COMMENT":"GENERATED VIA SPACE-TRACK.ORG API","CREATION_DATE":"2020-06-03T15:06:09","ORIGINATOR":"18 SPCS","OBJECT_NAME":"ONEWEB-0027","OBJECT_ID":"2020-020J","CENTER_NAME":"EARTH","REF_FRAME":"TEME","TIME_SYSTEM":"UTC","MEAN_ELEMENT_THEORY":"SGP4","EPOCH":"2020-06-03T14:00:01.000224","MEAN_MOTION":"14.89815163","ECCENTRICITY":"0.00282000","INCLINATION":"87.5624","RA_OF_ASC_NODE":"114.1991","ARG_OF_PERICENTER":"35.1052","MEAN_ANOMALY":"268.3997","EPHEMERIS_TYPE":"0","CLASSIFICATION_TYPE":"U","NORAD_CAT_ID":"45432","ELEMENT_SET_NO":"999","REV_AT_EPOCH":"1118","BSTAR":"-0.00415030000000","MEAN_MOTION_DOT":"-0.00039820","MEAN_MOTION_DDOT":"0.0000000000000","SEMIMAJOR_AXIS":"6976.649","PERIOD":"96.656","APOAPSIS":"618.188","PERIAPSIS":"578.840","OBJECT_TYPE":"PAYLOAD","RCS_SIZE":"MEDIUM","COUNTRY_CODE":"UK","LAUNCH_DATE":"2020-03-21","SITE":"TTMTR","DECAY_DATE":null,"FILE":"2758588","GP_ID":"154994579","TLE_LINE0":"0 ONEWEB-0027","TLE_LINE1":"1 45432U 20020J   20155.58334491 -.00039820  00000-0 -41503-2 0  9991","TLE_LINE2":"2 45432  87.5624 114.1991 0028200  35.1052 268.3997 14.89815163 11187"},{"CCSDS_OMM_VERS":"2.0","COMMENT":"GENERATED VIA SPACE-TRACK.ORG API","CREATION_DATE":"2020-06-03T19:26:09","ORIGINATOR":"18 SPCS","OBJECT_NAME":"ONEWEB-0027","OBJECT_ID":"2020-020J","CENTER_NAME":"EARTH","REF_FRAME":"TEME","TIME_SYSTEM":"UTC","MEAN_ELEMENT_THEORY":"SGP4","EPOCH":"2020-06-03T18:00:00.999648","MEAN_MOTION":"14.89766117","ECCENTRICITY":"0.00281240","INCLINATION":"87.5624","RA_OF_ASC_NODE":"114.1478","ARG_OF_PERICENTER":"34.5245","MEAN_ANOMALY":"82.2725","EPHEMERIS_TYPE":"0","CLASSIFICATION_TYPE":"U","NORAD_CAT_ID":"45432","ELEMENT_SET_NO":"999","REV_AT_EPOCH":"1121","BSTAR":"0.00674940000000","MEAN_MOTION_DOT":"0.00065711","MEAN_MOTION_DDOT":"0.0000000000000","SEMIMAJOR_AXIS":"6976.802","PERIOD":"96.659","APOAPSIS":"618.289","PERIAPSIS":"579.046","OBJECT_TYPE":"PAYLOAD","RCS_SIZE":"MEDIUM","COUNTRY_CODE":"UK","LAUNCH_DATE":"2020-03-21","SITE":"TTMTR","DECAY_DATE":null,"FILE":"2758730","GP_ID":"154997444","TLE_LINE0":"0 ONEWEB-0027","TLE_LINE1":"1 45432U 20020J   20155.75001157  .00065711  00000-0  67494-2 0  9993","TLE_LINE2":"2 45432  87.5624 114.1478 0028124  34.5245  82.2725 14.89766117 11219"}]